HELIOS 1B               
1 25977U 99064A   26115.25420125  .00001312  00000+0  14984-3 0  9999
2 25977  98.1652  18.8578 0000382  77.0632 283.0626 14.87859360692182
TERRA                   
1 25994U 99068A   26115.22264162  .00000355  00000+0  81255-4 0  9998
2 25994  97.9504 166.8574 0003237  58.2280  33.5906 14.61059606401876
SL-16 R/B               
1 26070U 00006B   26115.07706987  .00000255  00000+0  15380-3 0  9991
2 26070  71.0043   0.3002 0014620 114.2722 245.9930 14.15830078355124
TITAN 4B R/B            
1 26474U 00047B   26115.20341713  .00002883  00000+0  18218-3 0  9993
2 26474  67.9882 269.6747 0042461 342.4026  17.5649 15.09909336399934
ENVISAT                 
1 27386U 02009A   26115.28773528  .00000087  00000+0  42134-4 0  9996
2 27386  98.3797  67.7981 0001132  86.6461  80.9104 14.39051619265876
IDEFIX & ARIANE 42P R/B 
1 27422U 02021B   26115.27176862  .00000221  00000+0  10050-3 0  9999
2 27422  98.5919  53.3370 0012834  53.5946 306.6419 14.31055225250689
AQUA                    
1 27424U 02022A   26115.22185619  .00000787  00000+0  16659-3 0  9995
2 27424  98.4243  83.4619 0002020  96.7660 319.7578 14.62072517275537
CZ-4B R/B               
1 27432U 02024C   26115.11869324  .00000025  00000+0  35852-4 0  9998
2 27432  98.8746 168.2704 0049142 250.6728 163.9044 14.14555472235803
MIDORI II (ADEOS-II)    
1 27597U 02056A   26115.14627625  .00000235  00000+0  11023-3 0  9990
2 27597  98.7839  73.9687 0000773 144.3140 215.8093 14.29317811216936
H-2A R/B                
1 27601U 02056E   26115.17509414  .00000320  00000+0  12661-3 0  9998
2 27601  98.3276  73.7944 0070787  24.0907 346.4972 14.33792731220771
CZ-4B R/B               
1 28059U 03049C   26115.00749409  .00000328  00000+0  86681-4 0  9993
2 28059  98.6899 111.7415 0049346  90.3786 270.3064 14.55058989193339
CZ-2C R/B               
1 28222U 04012C   26115.14960633  .00078518  00000+0  64071-3 0  9999
2 28222  97.7130 185.0305 0013796 138.7433 221.4873 15.70238504211558
SL-16 R/B               
1 28353U 04021B   26115.26865677 -.00000203  00000+0 -80970-4 0  9994
2 28353  70.9986 134.7462 0006842 310.0206  50.0316 14.14604522129423
CZ-4B R/B               
1 28415U 04035C   26115.09897390  .00006991  00000+0  24107-3 0  9993
2 28415  97.3424 148.7912 0032312 160.8656 199.3807 15.29802053187004
CZ-2C R/B               
1 28480U 04046B   26115.25383694  .00000157  00000+0  73396-4 0  9995
2 28480  98.1969  27.3351 0139861  17.6903 342.9078 14.27010112115145
ARIANE 5 R/B            
1 28499U 04049H   26115.18310457  .00000993  00000+0  11553-3 0  9991
2 28499  98.2689 285.4014 0083642 199.5825 160.2171 14.85352445152694
CZ-2D R/B               
1 28738U 05024B   26115.01775589  .00041237  00000+0  43228-3 0  9994
2 28738  97.3548 132.0049 0004677 172.2002 187.9331 15.64281320147010
