[{"OBJECT_NAME":"HELIOS 1B","OBJECT_ID":"1999-064A","EPOCH":"2026-04-25T06:06:02.988000","MEAN_MOTION":14.8785936,"ECCENTRICITY":3.821e-5,"INCLINATION":98.1652,"RA_OF_ASC_NODE":18.8578,"ARG_OF_PERICENTER":77.0632,"MEAN_ANOMALY":283.0626,"EPHEMERIS_TYPE":0,"CLASSIFICATION_TYPE":"U","NORAD_CAT_ID":25977,"ELEMENT_SET_NO":999,"REV_AT_EPOCH":69218,"BSTAR":0.00014983865,"MEAN_MOTION_DOT":1.312e-5,"MEAN_MOTION_DDOT":0},{"OBJECT_NAME":"TERRA","OBJECT_ID":"1999-068A","EPOCH":"2026-04-25T05:20:36.235968","MEAN_MOTION":14.61059606,"ECCENTRICITY":0.00032375,"INCLINATION":97.9504,"RA_OF_ASC_NODE":166.8574,"ARG_OF_PERICENTER":58.228,"MEAN_ANOMALY":33.5906,"EPHEMERIS_TYPE":0,"CLASSIFICATION_TYPE":"U","NORAD_CAT_ID":25994,"ELEMENT_SET_NO":999,"REV_AT_EPOCH":40187,"BSTAR":8.1254966e-5,"MEAN_MOTION_DOT":3.55e-6,"MEAN_MOTION_DDOT":0},{"OBJECT_NAME":"SL-16 R/B","OBJECT_ID":"2000-006B","EPOCH":"2026-04-25T01:50:58.836768","MEAN_MOTION":14.15830078,"ECCENTRICITY":0.00146208,"INCLINATION":71.0043,"RA_OF_ASC_NODE":0.3002,"ARG_OF_PERICENTER":114.2722,"MEAN_ANOMALY":245.993,"EPHEMERIS_TYPE":0,"CLASSIFICATION_TYPE":"U","NORAD_CAT_ID":26070,"ELEMENT_SET_NO":999,"REV_AT_EPOCH":35512,"BSTAR":0.00015379824,"MEAN_MOTION_DOT":2.55e-6,"MEAN_MOTION_DDOT":0},{"OBJECT_NAME":"TITAN 4B R/B","OBJECT_ID":"2000-047B","EPOCH":"2026-04-25T04:52:55.240032","MEAN_MOTION":15.09909336,"ECCENTRICITY":0.00424616,"INCLINATION":67.9882,"RA_OF_ASC_NODE":269.6747,"ARG_OF_PERICENTER":342.4026,"MEAN_ANOMALY":17.5649,"EPHEMERIS_TYPE":0,"CLASSIFICATION_TYPE":"U","NORAD_CAT_ID":26474,"ELEMENT_SET_NO":999,"REV_AT_EPOCH":39993,"BSTAR":0.00018217644,"MEAN_MOTION_DOT":2.883e-5,"MEAN_MOTION_DDOT":0},{"OBJECT_NAME":"ENVISAT","OBJECT_ID":"2002-009A","EPOCH":"2026-04-25T06:54:20.328192","MEAN_MOTION":14.39051619,"ECCENTRICITY":0.00011326,"INCLINATION":98.3797,"RA_OF_ASC_NODE":67.7981,"ARG_OF_PERICENTER":86.6461,"MEAN_ANOMALY":80.9104,"EPHEMERIS_TYPE":0,"CLASSIFICATION_TYPE":"U","NORAD_CAT_ID":27386,"ELEMENT_SET_NO":999,"REV_AT_EPOCH":26587,"BSTAR":4.2133876e-5,"MEAN_MOTION_DOT":8.7e-7,"MEAN_MOTION_DDOT":0},{"OBJECT_NAME":"IDEFIX & ARIANE 42P R/B","OBJECT_ID":"2002-021B","EPOCH":"2026-04-25T06:31:20.808768","MEAN_MOTION":14.31055225,"ECCENTRICITY":0.00128341,"INCLINATION":98.5919,"RA_OF_ASC_NODE":53.337,"ARG_OF_PERICENTER":53.5946,"MEAN_ANOMALY":306.6419,"EPHEMERIS_TYPE":0,"CLASSIFICATION_TYPE":"U","NORAD_CAT_ID":27422,"ELEMENT_SET_NO":999,"REV_AT_EPOCH":25068,"BSTAR":0.00010050252,"MEAN_MOTION_DOT":2.21e-6,"MEAN_MOTION_DDOT":0},{"OBJECT_NAME":"AQUA","OBJECT_ID":"2002-022A","EPOCH":"2026-04-25T05:19:28.374816","MEAN_MOTION":14.62072517,"ECCENTRICITY":0.000202,"INCLINATION":98.4243,"RA_OF_ASC_NODE":83.4619,"ARG_OF_PERICENTER":96.766,"MEAN_ANOMALY":319.7578,"EPHEMERIS_TYPE":0,"CLASSIFICATION_TYPE":"U","NORAD_CAT_ID":27424,"ELEMENT_SET_NO":999,"REV_AT_EPOCH":27553,"BSTAR":0.00016658548,"MEAN_MOTION_DOT":7.87e-6,"MEAN_MOTION_DDOT":0},{"OBJECT_NAME":"CZ-4B R/B","OBJECT_ID":"2002-024C","EPOCH":"2026-04-25T02:50:55.095936","MEAN_MOTION":14.14555472,"ECCENTRICITY":0.00491428,"INCLINATION":98.8746,"RA_OF_ASC_NODE":168.2704,"ARG_OF_PERICENTER":250.6728,"MEAN_ANOMALY":163.9044,"EPHEMERIS_TYPE":0,"CLASSIFICATION_TYPE":"U","NORAD_CAT_ID":27432,"ELEMENT_SET_NO":999,"REV_AT_EPOCH":23580,"BSTAR":3.5852079e-5,"MEAN_MOTION_DOT":2.5e-7,"MEAN_MOTION_DDOT":0},{"OBJECT_NAME":"MIDORI II (ADEOS-II)","OBJECT_ID":"2002-056A","EPOCH":"2026-04-25T03:30:38.268000","MEAN_MOTION":14.29317811,"ECCENTRICITY":7.734e-5,"INCLINATION":98.7839,"RA_OF_ASC_NODE":73.9687,"ARG_OF_PERICENTER":144.314,"MEAN_ANOMALY":215.8093,"EPHEMERIS_TYPE":0,"CLASSIFICATION_TYPE":"U","NORAD_CAT_ID":27597,"ELEMENT_SET_NO":999,"REV_AT_EPOCH":21693,"BSTAR":0.00011023253,"MEAN_MOTION_DOT":2.35e-6,"MEAN_MOTION_DDOT":0},{"OBJECT_NAME":"H-2A R/B","OBJECT_ID":"2002-056E","EPOCH":"2026-04-25T04:12:08.133696","MEAN_MOTION":14.33792731,"ECCENTRICITY":0.00707877,"INCLINATION":98.3276,"RA_OF_ASC_NODE":73.7944,"ARG_OF_PERICENTER":24.0907,"MEAN_ANOMALY":346.4972,"EPHEMERIS_TYPE":0,"CLASSIFICATION_TYPE":"U","NORAD_CAT_ID":27601,"ELEMENT_SET_NO":999,"REV_AT_EPOCH":22077,"BSTAR":0.00012661246,"MEAN_MOTION_DOT":3.2e-6,"MEAN_MOTION_DDOT":0},{"OBJECT_NAME":"CZ-4B R/B","OBJECT_ID":"2003-049C","EPOCH":"2026-04-25T00:10:47.489376","MEAN_MOTION":14.55058989,"ECCENTRICITY":0.00493467,"INCLINATION":98.6899,"RA_OF_ASC_NODE":111.7415,"ARG_OF_PERICENTER":90.3786,"MEAN_ANOMALY":270.3064,"EPHEMERIS_TYPE":0,"CLASSIFICATION_TYPE":"U","NORAD_CAT_ID":28059,"ELEMENT_SET_NO":999,"REV_AT_EPOCH":19333,"BSTAR":8.668081e-5,"MEAN_MOTION_DOT":3.28e-6,"MEAN_MOTION_DDOT":0},{"OBJECT_NAME":"CZ-2C R/B","OBJECT_ID":"2004-012C","EPOCH":"2026-04-25T03:35:25.986912","MEAN_MOTION":15.70238504,"ECCENTRICITY":0.00137963,"INCLINATION":97.713,"RA_OF_ASC_NODE":185.0305,"ARG_OF_PERICENTER":138.7433,"MEAN_ANOMALY":221.4873,"EPHEMERIS_TYPE":0,"CLASSIFICATION_TYPE":"U","NORAD_CAT_ID":28222,"ELEMENT_SET_NO":999,"REV_AT_EPOCH":21155,"BSTAR":0.00064071261,"MEAN_MOTION_DOT":0.00078518,"MEAN_MOTION_DDOT":0},{"OBJECT_NAME":"SL-16 R/B","OBJECT_ID":"2004-021B","EPOCH":"2026-04-25T06:26:51.944928","MEAN_MOTION":14.14604522,"ECCENTRICITY":0.00068424,"INCLINATION":70.9986,"RA_OF_ASC_NODE":134.7462,"ARG_OF_PERICENTER":310.0206,"MEAN_ANOMALY":50.0316,"EPHEMERIS_TYPE":0,"CLASSIFICATION_TYPE":"U","NORAD_CAT_ID":28353,"ELEMENT_SET_NO":999,"REV_AT_EPOCH":12942,"BSTAR":-8.0970026e-5,"MEAN_MOTION_DOT":-2.03e-6,"MEAN_MOTION_DDOT":0},{"OBJECT_NAME":"CZ-4B R/B","OBJECT_ID":"2004-035C","EPOCH":"2026-04-25T02:22:31.344960","MEAN_MOTION":15.29802053,"ECCENTRICITY":0.00323124,"INCLINATION":97.3424,"RA_OF_ASC_NODE":148.7912,"ARG_OF_PERICENTER":160.8656,"MEAN_ANOMALY":199.3807,"EPHEMERIS_TYPE":0,"CLASSIFICATION_TYPE":"U","NORAD_CAT_ID":28415,"ELEMENT_SET_NO":999,"REV_AT_EPOCH":18700,"BSTAR":0.0002410742,"MEAN_MOTION_DOT":6.991e-5,"MEAN_MOTION_DDOT":0},{"OBJECT_NAME":"CZ-2C R/B","OBJECT_ID":"2004-046B","EPOCH":"2026-04-25T06:05:31.511616","MEAN_MOTION":14.27010112,"ECCENTRICITY":0.0139861,"INCLINATION":98.1969,"RA_OF_ASC_NODE":27.3351,"ARG_OF_PERICENTER":17.6903,"MEAN_ANOMALY":342.9078,"EPHEMERIS_TYPE":0,"CLASSIFICATION_TYPE":"U","NORAD_CAT_ID":28480,"ELEMENT_SET_NO":999,"REV_AT_EPOCH":11514,"BSTAR":7.339569e-5,"MEAN_MOTION_DOT":1.57e-6,"MEAN_MOTION_DDOT":0},{"OBJECT_NAME":"ARIANE 5 R/B","OBJECT_ID":"2004-049H","EPOCH":"2026-04-25T04:23:40.234848","MEAN_MOTION":14.85352445,"ECCENTRICITY":0.00836425,"INCLINATION":98.2689,"RA_OF_ASC_NODE":285.4014,"ARG_OF_PERICENTER":199.5825,"MEAN_ANOMALY":160.2171,"EPHEMERIS_TYPE":0,"CLASSIFICATION_TYPE":"U","NORAD_CAT_ID":28499,"ELEMENT_SET_NO":999,"REV_AT_EPOCH":15269,"BSTAR":0.00011552533,"MEAN_MOTION_DOT":9.93e-6,"MEAN_MOTION_DDOT":0},{"OBJECT_NAME":"CZ-2D R/B","OBJECT_ID":"2005-024B","EPOCH":"2026-04-25T00:25:34.108896","MEAN_MOTION":15.6428132,"ECCENTRICITY":0.00046771,"INCLINATION":97.3548,"RA_OF_ASC_NODE":132.0049,"ARG_OF_PERICENTER":172.2002,"MEAN_ANOMALY":187.9331,"EPHEMERIS_TYPE":0,"CLASSIFICATION_TYPE":"U","NORAD_CAT_ID":28738,"ELEMENT_SET_NO":999,"REV_AT_EPOCH":14701,"BSTAR":0.00043227556,"MEAN_MOTION_DOT":0.00041237,"MEAN_MOTION_DDOT":0}]
